{"type":"FeatureCollection","features":[{"type":"Feature","geometry":{"type":"Polygon","coordinates":[[[100.0542,7.143],[100.1011,7.1722],[100.1229,7.1763],[100.1436,7.1619],[100.1549,7.1625],[100.1716,7.1847],[100.2774,7.2206],[100.2996,7.2198],[100.3071,7.2363],[100.3302,7.2539],[100.3321,7.2786],[100.3478,7.2877],[100.3505,7.3063],[100.3711,7.3212],[100.3873,7.3179],[100.394,7.2813],[100.4012,7.2772],[100.4166,7.2873],[100.4185,7.3063],[100.4012,7.3365],[100.3895,7.3969],[100.3727,7.4235],[100.377,7.5055],[100.3556,7.5166],[100.2992,7.486],[100.2586,7.4868],[100.228,7.5347],[100.207,7.726],[100.1676,7.8752],[100.1758,7.8866],[100.2284,7.8923],[100.2612,7.9235],[100.2973,7.9258],[100.3062,7.9444],[100.3323,7.9477],[100.3464,7.9338],[100.4472,7.5059],[100.5004,7.3564],[100.5404,7.2822],[100.5709,7.248],[100.586,7.2404],[100.5782,7.2666],[100.5893,7.2743],[100.5992,7.27],[100.5994,7.2488],[100.6084,7.2347],[100.602,7.2239],[100.6968,7.0852],[100.7691,6.9955],[100.8146,6.9638],[100.8543,6.9704],[100.9401,6.8982],[101.0164,6.8636],[101.1822,6.8746],[101.2196,6.8861],[101.2512,6.9145],[101.2897,6.8997],[101.2943,6.89],[101.3102,6.8964],[101.3281,6.8864],[101.3316,6.9004],[101.2904,6.9284],[101.2685,6.9327],[101.2399,6.9168],[101.2279,6.9217],[101.2394,6.9497],[101.2809,6.9621],[101.3154,6.9486],[101.3659,6.9113],[101.5313,6.8737],[101.5485,6.8559],[101.5659,6.851],[101.728,6.5901],[101.8161,6.4676],[101.853,6.4406],[101.8806,6.4325],[101.9619,6.3441],[102.0972,6.2506],[102.1017,6.2341],[102.0911,6.2224],[102.088,6.1922],[102.1021,6.142],[102.0616,6.0736],[101.9954,6.0295],[101.9822,6.0154],[101.9808,6.0],[101.9568,5.9774],[101.9538,5.951],[101.9418,5.9391],[101.9362,5.9178],[101.9531,5.8743],[101.946,5.8565],[101.9223,5.8344],[101.8886,5.8252],[101.8894,5.8061],[101.8728,5.7836],[101.8434,5.7793],[101.8324,5.7581],[101.8363,5.7316],[101.816,5.7231],[101.7749,5.7542],[101.756,5.7859],[101.7429,5.7733],[101.7264,5.7712],[101.7112,5.7462],[101.6844,5.7479],[101.6797,5.7714],[101.661,5.7845],[101.6482,5.8092],[101.6462,5.8612],[101.6165,5.8694],[101.6046,5.9034],[101.5926,5.9034],[101.5793,5.9184],[101.5446,5.9091],[101.4888,5.861],[101.3993,5.8633],[101.3816,5.8265],[101.3578,5.8191],[101.3493,5.7998],[101.3264,5.8023],[101.3125,5.7924],[101.2882,5.8046],[101.2792,5.8004],[101.2613,5.7615],[101.2708,5.7168],[101.2567,5.6906],[101.2314,5.678],[101.2198,5.6531],[101.1997,5.6404],[101.1782,5.6381],[101.1482,5.6059],[101.1278,5.6053],[101.1036,5.6737],[101.0729,5.7039],[101.0701,5.7161],[101.0569,5.7183],[101.0501,5.73],[101.0287,5.7297],[101.0091,5.7597],[100.9825,5.7765],[100.9734,5.8078],[100.9993,5.8397],[100.9993,5.8764],[101.0194,5.9206],[101.0353,5.9276],[101.078,5.9279],[101.0867,5.9561],[101.1095,5.9759],[101.0972,5.9883],[101.1009,6.0369],[101.0902,6.051],[101.1131,6.103],[101.0993,6.1059],[101.0849,6.1243],[101.0538,6.1328],[101.0484,6.1424],[101.0693,6.1791],[101.112,6.1941],[101.0969,6.2457],[101.0132,6.2373],[100.9758,6.2694],[100.9569,6.2556],[100.9471,6.2338],[100.9189,6.2352],[100.9008,6.2237],[100.8797,6.2424],[100.8717,6.2295],[100.8492,6.2228],[100.8254,6.2836],[100.8348,6.3142],[100.8117,6.3544],[100.8126,6.4064],[100.803,6.4349],[100.7471,6.4502],[100.7299,6.4852],[100.7168,6.464],[100.6947,6.4553],[100.69,6.4456],[100.6507,6.4331],[100.5593,6.4831],[100.5486,6.4753],[100.5143,6.4803],[100.4942,6.4932],[100.4824,6.5132],[100.4441,6.5165],[100.4215,6.5077],[100.3763,6.5324],[100.3605,6.5317],[100.3435,6.5613],[100.2961,6.601],[100.298,6.6174],[100.3133,6.6244],[100.3062,6.6361],[100.3098,6.6567],[100.2868,6.6737],[100.2804,6.6966],[100.2263,6.6835],[100.1959,6.7178],[100.1975,6.7502],[100.2047,6.7598],[100.1838,6.784],[100.1813,6.8104],[100.2087,6.8737],[100.1892,6.9002],[100.1645,6.9023],[100.1446,6.9146],[100.1173,6.9149],[100.0893,6.9544],[100.0709,6.9574],[100.0722,6.9961],[100.0538,7.0145],[100.0614,7.0412],[100.0453,7.0989],[100.0542,7.143]]]},"properties":{"provinces":{"90":"Songkhla","94":"Pattani","95":"Yala","96":"Narathiwat"},"source":"Royal Thai Survey Department via OCHA HDX COD-AB Thailand (CC BY-IGO), from supabase/seed/10_provinces.sql. Simplified for Jaga; not an official boundary.","buffer_deg":0.01,"simplify_deg":0.005}}]}
